STARLINK-2412           
1 48094U 21027C   25034.62414258  .00006213  00000+0  43534-3 0  9996
2 48094  53.0514 163.0917 0001335  88.4005 271.7137 15.06422290211877
STARLINK-2414           
1 48095U 21027D   25034.63150581  .00000117  00000+0  26751-4 0  9994
2 48095  53.0569 163.0564 0001058  93.0673 267.0437 15.06402981211877
STARLINK-2417           
1 48096U 21027E   25034.67206760  .00009122  00000+0  63002-3 0  9994
2 48096  53.0535 162.8792 0001496  65.9435 294.1710 15.06428309212273
STARLINK-2418           
1 48097U 21027F   25034.98353324  .00006624  00000+0  46305-3 0  9999
2 48097  53.0515 141.4779 0001006  85.6133 274.4971 15.06408009212209
STARLINK-2421           
1 48098U 21027G   25035.02684217  .00001118  00000+0  93954-4 0  9990
2 48098  53.0535 151.2822 0001513  85.2056 274.9106 15.06393250212120
STARLINK-2428           
1 48099U 21027H   25034.61678625  .00001776  00000+0  13802-3 0  9994
2 48099  53.0562 163.1278 0001194  83.9812 276.1313 15.06412501211863
STARLINK-2430           
1 48100U 21027J   25034.57809465 -.00005200  00000+0 -33078-3 0  9995
2 48100  53.0533 143.2996 0001414  94.7131 265.4020 15.06362340212546
STARLINK-2436           
1 48101U 21027K   25034.64720788  .00004805  00000+0  34106-3 0  9995
2 48101  53.0546 153.1950 0001517  69.7463 290.3688 15.06418786212010
STARLINK-2437           
1 48102U 21027L   25035.00195781  .00002261  00000+0  17072-3 0  9993
2 48102  53.0543 141.3891 0002385  88.8642 271.2620 15.06391579212201
STARLINK-2439           
1 48104U 21027N   25035.02179564 -.00001807  00000+0 -10248-3 0  9993
2 48104  53.0553 146.3026 0001923  89.1833 270.9376 15.06378086212147
STARLINK-2440           
1 48105U 21027P   25035.12822004  .00005221  00000+0  36901-3 0  9995
2 48105  53.0536  90.8299 0002103  88.4597 271.6633 15.06413372212922
STARLINK-2442           
1 48106U 21027Q   25035.24522444  .00018710  00000+0  12703-2 0  9994
2 48106  53.0523 140.3074 0001381  58.4519 301.6605 15.06438345212244
STARLINK-2443           
1 48107U 21027R   25034.53017524  .00019518  00000+0  13243-2 0  9991
2 48107  53.0535 143.5144 0001562  76.6533 283.4630 15.06436341212531
STARLINK-2447           
1 48110U 21027U   25034.77258854  .00039653  00000+0  10559-2 0  9993
2 48110  53.0503 142.7309 0002087  27.2606 332.8506 15.37828786212577
STARLINK-2448           
1 48111U 21027V   25035.01576776 -.00000360  00000+0 -53017-5 0  9992
2 48111  53.0506 151.3039 0001144  66.4550 293.6559 15.06408595212078
STARLINK-2449           
1 48112U 21027W   25034.87616653 -.00003401  00000+0 -20927-3 0  9996
2 48112  53.0538 167.1217 0001345 106.5559 253.5578 15.06450055211832
STARLINK-2450           
1 48113U 21027X   25034.61310396  .00000532  00000+0  54632-4 0  9995
2 48113  53.0545 163.1427 0001548 108.7412 251.3745 15.06393699212256
STARLINK-2452           
1 48115U 21027Z   25034.47026545 -.00003694  00000+0 -22912-3 0  9990
2 48115  53.0526 153.7921 0001207  82.2780 277.8346 15.06412287212386
STARLINK-2454           
1 48116U 21027AA  25034.60940402  .00011318  00000+0  77715-3 0  9994
2 48116  53.0525 163.1603 0001447  79.9733 280.1420 15.06415696212269
STARLINK-2455           
1 48117U 21027AB  25034.97891684  .00004785  00000+0  34013-3 0  9996
2 48117  53.0532 141.4904 0002107  81.6511 278.4717 15.06376245212208
STARLINK-2459           
1 48119U 21027AD  25034.58819408  .00002455  00000+0  18361-3 0  9999
2 48119  53.0552 143.2492 0001491  82.5199 277.5959 15.06408993212531
STARLINK-2460           
1 48120U 21027AE  25034.59467477  .00000858  00000+0  76485-4 0  9994
2 48120  53.0555 163.2307 0001179  84.2730 275.8394 15.06400920212273
STARLINK-2462           
1 48121U 21027AF  25035.03051614 -.00001645  00000+0 -91552-4 0  9996
2 48121  53.0533 151.2655 0001407  86.3979 273.7171 15.06414912212079
STARLINK-2464           
1 48123U 21027AH  25034.57438976 -.00001062  00000+0 -52402-4 0  9990
2 48123  53.0560 143.3167 0001450  93.1413 266.9742 15.06405949212133
STARLINK-2465           
1 48124U 21027AJ  25034.63982634  .00007814  00000+0  54285-3 0  9992
2 48124  53.0540 153.0216 0001331  72.1304 287.9830 15.06403828212404
STARLINK-2466           
1 48125U 21027AK  25034.58731184  .00007415  00000+0  51590-3 0  9992
2 48125  53.0538 163.4980 0001002  92.4466 267.6637 15.06420517212262
STARLINK-2467           
1 48126U 21027AL  25034.80661799  .00018588  00000+0  12627-2 0  9992
2 48126  53.0528 142.2708 0001279  76.6367 283.4765 15.06423871212179
STARLINK-2468           
1 48127U 21027AM  25034.86374341  .00003348  00000+0  24354-3 0  9992
2 48127  53.0540 162.0142 0001344  81.5665 278.5476 15.06404714211904
STARLINK-2469           
1 48128U 21027AN  25035.17614409 -.00001692  00000+0 -94746-4 0  9995
2 48128  53.0551  90.7001 0001961  94.1031 266.0182 15.06392968212937
STARLINK-2471           
1 48129U 21027AP  25034.65734000 -.00005432  00000+0 -34632-3 0  9991
2 48129  53.0532 162.9406 0001504  96.0854 264.0307 15.06373437212279
STARLINK-2472           
1 48130U 21027AQ  25034.63298598 -.00002748  00000+0 -16572-3 0  9998
2 48130  53.0531 168.6027 0001346  57.2096 302.9023 15.06384166211797
STARLINK-2473           
1 48131U 21027AR  25034.60018942 -.00003993  00000+0 -24936-3 0  9995
2 48131  53.0542 143.1990 0001439  99.9150 260.2001 15.06392943212542
STARLINK-2474           
1 48132U 21027AS  25035.04434415  .00004014  00000+0  28812-3 0  9992
2 48132  53.0540 161.2027 0001290  78.5077 281.6056 15.06414391211930
STARLINK-2475           
1 48133U 21027AT  25035.04066624  .00006954  00000+0  48520-3 0  9999
2 48133  53.0516 161.2201 0000963  72.4928 287.6166 15.06404358211932
STARLINK-2476           
1 48134U 21027AU  25034.62782979  .00003005  00000+0  22045-3 0  9999
2 48134  53.0536 163.0768 0001302  81.4791 278.6346 15.06410041212262
STARLINK-2478           
1 48135U 21027AV  25034.62923418 -.00002955  00000+0 -17940-3 0  9998
2 48135  53.0552 168.2347 0003028 117.8007 242.3290 15.06421870211797
STARLINK-2479           
1 48136U 21027AW  25034.63527580  .00012485  00000+0  85528-3 0  9994
2 48136  53.0531 163.5460 0000640  48.6796 311.4248 15.06411712212260
STARLINK-2480           
1 48137U 21027AX  25035.00932956 -.00013469  00000+0 -88753-3 0  9992
2 48137  53.0551 141.3307 0001128 110.3486 249.7624 15.06379858212201
STARLINK-2481           
1 48138U 21027AY  25034.63888474  .00002317  00000+0  17428-3 0  9995
2 48138  53.0553 163.0236 0001846  72.1634 287.9557 15.06420630212274
STARLINK-2482           
1 48139U 21027AZ  25035.02777550 -.00002650  00000+0 -15920-3 0  9999
2 48139  53.0538 141.2806 0001307  75.3726 284.7408 15.06379218212217
STARLINK-2483           
1 48140U 21027BA  25034.65002886  .00002968  00000+0  21807-3 0  9993
2 48140  53.0547 163.5253 0001741  95.5824 264.5364 15.06396770212261
STARLINK-2484           
1 48141U 21027BB  25035.25001157  .00600739  16065-3  14977-2 0  9992
2 48141  53.0459 139.2786 0002496 353.9083  35.8208 15.95253780212268
STARLINK-2485           
1 48142U 21027BC  25035.02408919  .00009594  00000+0  66191-3 0  9991
2 48142  53.0507 141.2950 0001457  89.1020 271.0136 15.06408407212213
STARLINK-2486           
1 48143U 21027BD  25035.14804135 -.00000842  00000+0 -37624-4 0  9994
2 48143  53.0549  95.8390 0001679  87.5698 272.5483 15.06394859212857
STARLINK-2487           
1 48144U 21027BE  25034.76606609  .00007094  00000+0  49475-3 0  9998
2 48144  53.0534 142.4536 0001532  97.0756 263.0407 15.06391388212565
STARLINK-2488           
1 48145U 21027BF  25034.76973302  .00022649  00000+0  15328-2 0  9998
2 48145  53.0548 142.4343 0001474  93.1784 266.9374 15.06441944212570
STARLINK-2491           
1 48148U 21027BJ  25034.66837718  .00010061  00000+0  69290-3 0  9993
2 48148  53.0533 162.8947 0001146  82.9977 277.1142 15.06424669212267
STARLINK-2492           
1 48149U 21027BK  25035.01303067 -.00004225  00000+0 -26508-3 0  9991
2 48149  53.0520 141.3457 0001362  92.0690 268.0455 15.06374142212206
STARLINK-2493           
1 48150U 21027BL  25034.61863150  .00017687  00000+0  12039-2 0  9999
2 48150  53.0535 143.1186 0002137  57.0542 303.0653 15.06382119212158
STARLINK-2503           
1 48151U 21027BM  25035.02038234 -.00015782  00000+0 -10435-2 0  9997
2 48151  53.0562 141.3118 0000519  88.6071 271.4977 15.06381362212216
STARLINK-2567           
1 48276U 21036A   25035.19409911 -.00006589  00000+0 -42401-3 0  9991
2 48276  53.0553  35.5315 0001616  86.8206 273.2968 15.06386398209328
STARLINK-2569           
1 48277U 21036B   25035.06278034  .00006530  00000+0  45727-3 0  9996
2 48277  53.0558   1.1265 0001275  79.0171 281.0961 15.06369326209796
STARLINK-2543           
1 48278U 21036C   25035.16645920 -.00002626  00000+0 -15752-3 0  9999
2 48278  53.0561  15.7415 0001275 102.7473 257.3658 15.06385973209591
STARLINK-2580           
1 48279U 21036D   25035.15907981 -.00000583  00000+0 -20233-4 0  9998
2 48279  53.0568  15.6867 0002082  99.5110 260.6114 15.06391695209599
STARLINK-2565           
1 48280U 21036E   25034.42281601  .00002159  00000+0  16379-3 0  9997
2 48280  53.0546  88.9970 0001527  75.6131 284.5027 15.06404416207925
STARLINK-2558           
1 48282U 21036G   25035.05634397 -.00000143  00000+0  92732-5 0  9994
2 48282  53.0534  71.1524 0001653  90.9526 269.1652 15.06388790208819
STARLINK-2516           
1 48283U 21036H   25035.11900166 -.00002728  00000+0 -16435-3 0  9998
2 48283  53.0543  70.8692 0001498  87.0354 273.0806 15.06386966208824
STARLINK-2564           
1 48284U 21036J   25035.11531257  .00006673  00000+0  46627-3 0  9997
2 48284  53.0556  70.8874 0001781 100.3468 259.7722 15.06412054208816
STARLINK-2547           
1 48286U 21036L   25035.06741810 -.00001561  00000+0 -85907-4 0  9999
2 48286  53.0550  71.3727 0002336  87.6340 272.4917 15.06403044208804
